STARLINK-31057          
1 58545U 23192Q   26068.37098308 -.00000199  00000+0  54177-5 0  9992
2 58545  53.1617  64.4246 0001320 105.8070 254.3077 15.30188937125938
TRANSPORTER-10 OBJECT AD
1 59125U 24043AD  26068.86032889  .00011954  00000+0  36311-3 0  9997
2 59125  97.5470 207.3753 0008984 221.4908 138.5653 15.34189901112026
